NOAA 12 [-]             
1 21263U 91032A   22308.82398088  .00000166  00000+0  87253-4 0  9991
2 21263  98.5221 304.7621 0012548 290.6539  69.3295 14.26024949636730
NOAA 13 [-]             
1 22739U 93050A   22308.38355426  .00000172  00000+0  11486-3 0  9993
2 22739  98.5234 281.3188 0008642 307.9825  52.0567 14.12877358506812
NOAA 14 [-]             
1 23455U 94089A   22308.85400809  .00000085  00000+0  65694-4 0  9994
2 23455  98.4395 327.9139 0008335 282.3977  77.6264 14.14217466436551
NOAA 15 [B]             
1 25338U 98030A   22308.80597448  .00000235  00000+0  11620-3 0  9993
2 25338  98.6324 336.4315 0009397 245.7381 114.2818 14.26191450273020
NOAA 16 [-]             
1 26536U 00055A   22308.85269844  .00000114  00000+0  83015-4 0  9999
2 26536  98.6193   2.7946 0011478 122.1296 238.0993 14.13355636437186
NOAA 17 [-]             
1 27453U 02032A   22308.84954677  .00000208  00000+0  10723-3 0  9998
2 27453  98.6870 252.5562 0010982 220.0398 139.9972 14.25161138 58850
NOAA 18 [B]             
1 28654U 05018A   22308.78848647  .00000247  00000+0  15696-3 0  9998
2 28654  98.9363  19.0240 0013303 296.2669  63.7135 14.12801337899888
NOAA 19 [+]             
1 33591U 09005A   22308.87665914  .00000232  00000+0  15035-3 0  9999
2 33591  99.1334 345.8715 0014406 150.5735 209.6250 14.12632500708010
SUOMI NPP [+]           
1 37849U 11061A   22308.82056819  .00000135  00000+0  85028-4 0  9999
2 37849  98.7444 245.4832 0000988  86.7333 351.0869 14.19557689571114
NOAA 20 [+]             
1 43013U 17073A   22308.83988380  .00000113  00000+0  74174-4 0  9992
2 43013  98.7282 245.2538 0001380  63.2586 296.8731 14.19556295257142
CELESTIS-02             
1 25160U 98007D   22308.77277167  .00000062  00000+0  85355-4 0  9994
2 25160 107.9833 189.3324 0063870 231.2602 169.3960 14.21659645282804
CELESTIS-03             
1 26034U 99070C   22308.82881339  .00037351  00000+0  15287-2 0  9990
2 26034  98.3072 329.2187 0009434  22.7301 337.4350 15.24185254242418
O3B FM5                 
1 39188U 13031A   22308.60048628 -.00000023  00000+0  00000+0 0  9990
2 39188   0.0657  14.1480 0002729 214.8342 130.9989  5.00115311170971
O3B FM4                 
1 39189U 13031B   22308.45657272 -.00000023  00000+0  00000+0 0  9995
2 39189   0.0467 352.7824 0002680 235.8766 131.3226  5.00115848170988
O3B FM2                 
1 39190U 13031C   22308.74791277 -.00000023  00000+0  00000+0 0  9993
2 39190   0.0452 346.5988 0002685 240.6977 132.6856  5.00115074171052
O3B PFM                 
1 39191U 13031D   22308.77418756 -.00000023  00000+0  00000+0 0  9995
2 39191   0.0578   9.9383 0002707 214.6228 135.4219  5.00115713170611
O3B FM3                 
1 40079U 14038A   22308.62909750 -.00000023  00000+0  00000+0 0  9993
2 40079   0.0516 359.8241 0004703 202.8725 157.2873  5.00115312146974
O3B FM7                 
1 40080U 14038B   22308.77505629 -.00000023  00000+0  00000+0 0  9998
2 40080   0.0525 355.0534 0002270 272.0493  92.8761  5.00115498151822
O3B FM6                 
1 40081U 14038C   22308.60155261 -.00000023  00000+0  00000+0 0  9994
2 40081   0.0506 359.7046 0002772 225.0862 135.1914  5.00115288151767
O3B FM8                 
1 40082U 14038D   22307.85588594 -.00000023  00000+0  00000+0 0  9990
2 40082   0.0480 357.6883 0002659 223.5455 138.7507  5.00115636151843
O3B FM10                
1 40348U 14083A   22308.68155433 -.00000023  00000+0  00000+0 0  9999
2 40348   0.0527   9.5114 0002680 215.1564 135.3153  5.00115107143835
O3B FM11                
1 40349U 14083B   22308.69498708 -.00000023  00000+0  00000+0 0  9996
2 40349   0.0567   6.8695 0002777 232.4519 120.6559  5.00115349143850
O3B FM12                
1 40350U 14083C   22308.12253470 -.00000023  00000+0  00000+0 0  9991
2 40350   0.0558   6.5425 0002851 219.8299 133.6086  5.00115255143830
O3B FM9                 
1 40351U 14083D   22308.14934471 -.00000023  00000+0  00000+0 0  9991
2 40351   0.0579   6.6577 0002668 218.7594 134.5657  5.00116055143984
DIAMOND RED             
1 42783U 17036U   22308.54459066  .00018770  00000+0  64599-3 0  9993
2 42783  97.1849 344.6118 0009775 180.1519 179.9720 15.30055154298344
DIAMOND GREEN           
1 42785U 17036W   22308.08692390  .00019496  00000+0  67008-3 0  9997
2 42785  97.1854 344.2351 0009543 183.1948 176.9234 15.30093159298264
DIAMOND BLUE            
1 42786U 17036X   22308.54397270  .00019346  00000+0  66487-3 0  9992
2 42786  97.1853 344.6690 0009623 181.9975 178.1230 15.30097159298331
LEO VANTAGE 1           
1 43113U 18004C   22308.72597439  .00005328  00000+0  42387-3 0  9990
2 43113  99.2439  43.7614 0399809 129.7256 233.9900 14.54527862244623
O3B FM15                
1 43231U 18024A   22308.81495991 -.00000023  00000+0  00000+0 0  9993
2 43231   0.0501  12.2226 0003019 214.2123 133.5447  5.00116047 84962
O3B FM16                
1 43232U 18024B   22308.66847319 -.00000023  00000+0  00000+0 0  9992
2 43232   0.0480  16.4833 0003000 210.5161 132.9801  5.00115873 84884
O3B FM14                
1 43233U 18024C   22308.70816635 -.00000023  00000+0  00000+0 0  9995
2 43233   0.0468  17.5286 0002890 212.2317 130.2191  5.00115282 84880
O3B FM13                
1 43234U 18024D   22305.96322640 -.00000022  00000+0  00000+0 0  9998
2 43234   0.0599  12.8340 0003801 213.6873 133.4520  5.00115173 84868
O3B FM20                
1 44112U 19020A   22308.73486265 -.00000023  00000+0  00000+0 0  9994
2 44112   0.0521   9.0856 0003257 222.6079 128.2819  5.00115436 65596
O3B FM19                
1 44113U 19020B   22305.76333430 -.00000022  00000+0  00000+0 0  9999
2 44113   0.0729  15.3549 0002501 176.8074 167.8367  5.00116044 65236
O3B FM17                
1 44114U 19020C   22308.64226920 -.00000023  00000+0  00000+0 0  9996
2 44114   0.0328   4.3954 0003141 222.0046 133.5786  5.00115573 65460
O3B FM18                
1 44115U 19020D   22307.98909864 -.00000023  00000+0  00000+0 0  9998
2 44115   0.0525   9.2352 0002930 214.7178 136.0283  5.00115756 65558
SALSAT                  
1 46495U 20068K   22308.73554302  .00005454  00000+0  38543-3 0  9991
2 46495  97.7415 250.2135 0016728 157.1271 203.0703 15.05210398115285
ISS (ZARYA)             
1 25544U 98067A   22308.86337963  .00016735  00000+0  30304-3 0  9994
2 25544  51.6449 359.6935 0006351  41.3591 303.6163 15.49753126366997
AEROCUBE 12A            
1 43556U 18046C   22308.17731185  .00056561  00000+0  11486-2 0  9994
2 43556  51.6346 220.0423 0008073 169.1609 190.9553 15.45750478240872
AEROCUBE 12B            
1 43557U 18046D   22308.15044667  .00040659  00000+0  93521-3 0  9997
2 43557  51.6345 227.2719 0007880 165.7949 194.3260 15.42213277240728
LEMUR-2-VU              
1 43558U 18046E   22308.05616500  .00119650  00000+0  14260-2 0  9998
2 43558  51.6328 192.7631 0009656 181.4394 178.6573 15.60139691241226
LEMUR-2-ALEXANDER       
1 43559U 18046F   22308.66193542  .00182526  00000+0  16734-2 0  9992
2 43559  51.6362 185.6052 0008964 198.8713 161.1952 15.66597969241153
LEMUR-2-YUASA           
1 43560U 18046G   22308.38339972  .00177401  00000+0  17783-2 0  9993
2 43560  51.6369 190.4764 0008636 199.9257 160.1402 15.64383614241288
LEMUR-2-TOMHENDERSON    
1 43561U 18046H   22308.33082403  .00104924  00000+0  14042-2 0  9998
2 43561  51.6378 196.8286 0009160 186.5083 173.5791 15.57138294240754
ICS-EF (ISS DEB)        
1 45265U 98067RJ  22308.52660720  .00068007  00000+0  51031-3 0  9998
2 45265  51.6343 321.3393 0006389  27.0211 333.1119 15.71941488153591
RED-EYE 2 (MERLOT)      
1 45800U 98067RM  22308.23592548  .00727974  27090-3  10631-2 0  9990
2 45800  51.6336 300.5414 0005644  55.7948 304.3598 16.04534635135702
RED-EYE 3 (CABERNET)    
1 45809U 98067RN  22308.30266793  .00759879  29705-3  11015-2 0  9998
2 45809  51.6357 300.2594 0005722  51.9521 308.2007 16.04658935134697
ISS DEB                 
1 47853U 98067RZ  22308.50178723  .00018234  00000+0  25693-3 0  9990
2 47853  51.6417 351.3466 0001573 122.7209 237.3934 15.56680629 93708
MMSATS-1                
1 47976U 98067SJ  22308.92303968  .00064410  00000+0  57915-3 0  9992
2 47976  51.6392 335.9337 0002726  56.9499   6.6085 15.67614231 92229
CSS (TIANHE)            
1 48274U 21035A   22308.85056245  .00024819  00000+0  30541-3 0  9995
2 48274  41.4756  81.8679 0009331 229.8059 266.0781 15.59615053 86761
ISS DEB                 
1 48833U 98067SK  22308.76562771  .00308410  46375-4  97849-3 0  9997
2 48833  51.6256 322.8249 0007113  48.5214 311.6401 15.90666528 81248
ISS (NAUKA)             
1 49044U 21066A   22308.50436497  .00016760  00000+0  30361-3 0  9994
2 49044  51.6450   1.4711 0006331  39.3800 101.2962 15.49740731366944
FREGAT DEB              
1 49271U 11037PF  22308.75945559  .00005297  00000+0  13306-1 0  9995
2 49271  51.7044 209.4339 1048949 336.5744  19.0436 11.98344696 63938
1998-067TD              
1 51441U 98067TD  22308.79180644  .00742577  26269-3  14253-2 0  9996
2 51441  51.6211 330.4986 0011505  44.3957 315.7973 15.99799022 44253
PATCOOL                 
1 51442U 98067TE  22308.32779744  .00640739  18613-3  14615-2 0  9994
2 51442  51.6290 332.6504 0010772  43.1349 317.0502 15.96739712 44146
LIGHT-1                 
1 51509U 98067TG  22308.33656704  .00147764  00000+0  94964-3 0  9992
2 51509  51.6385 341.8858 0010060  18.4150 341.7211 15.75179412 42808
IHI-SAT                 
1 52147U 98067TJ  22308.80683002  .00640181  17383-3  19224-2 0  9996
2 52147  51.6259 341.1725 0012026  40.9832 319.2076 15.91568589 35305
KITSUNE                 
1 52148U 98067TK  22308.95826226  .00081054  00000+0  83600-3 0  9992
2 52148  51.6402 348.9306 0005917  51.0610  12.9919 15.64074586 35159
TIANZHOU-4              
1 52509U 22050A   22308.51445505  .00036380  00000+0  41320-3 0  9996
2 52509  41.4740  83.9090 0004945 291.2282 115.3713 15.61590147 86712
